[{"OBJECT_NAME":"STARLINK-31251","OBJECT_ID":"2024-017L","EPOCH":"2026-03-09T16:07:53.904288","MEAN_MOTION":15.30189076,"ECCENTRICITY":9.413e-5,"INCLINATION":53.1599,"RA_OF_ASC_NODE":204.3899,"ARG_OF_PERICENTER":77.6945,"MEAN_ANOMALY":282.4161,"EPHEMERIS_TYPE":0,"CLASSIFICATION_TYPE":"U","NORAD_CAT_ID":58836,"ELEMENT_SET_NO":999,"REV_AT_EPOCH":12016,"BSTAR":1.8285236e-5,"MEAN_MOTION_DOT":1.82e-6,"MEAN_MOTION_DDOT":0},{"OBJECT_NAME":"NUSAT-49 (KLARA DAN VON NEUMANN)","OBJECT_ID":"2024-149AJ","EPOCH":"2026-03-09T19:09:16.004160","MEAN_MOTION":15.30828857,"ECCENTRICITY":0.00011321,"INCLINATION":97.3807,"RA_OF_ASC_NODE":150.738,"ARG_OF_PERICENTER":286.7761,"MEAN_ANOMALY":73.3356,"EPHEMERIS_TYPE":0,"CLASSIFICATION_TYPE":"U","NORAD_CAT_ID":60500,"ELEMENT_SET_NO":999,"REV_AT_EPOCH":8693,"BSTAR":0.00043568345,"MEAN_MOTION_DOT":0.00012912,"MEAN_MOTION_DDOT":0}]
