STARLINK-31251          
1 58836U 24017L   26068.67215167  .00000182  00000+0  18285-4 0  9999
2 58836  53.1599 204.3899 0000941  77.6945 282.4161 15.30189076120165
NUSAT-49 (KLARA DAN VO*)
1 60500U 24149AJ  26068.79810190  .00012912  00000+0  43568-3 0  9991
2 60500  97.3807 150.7380 0001132 286.7761  73.3356 15.30828857 86935
